STARLINK-35297          
1 66010U 25232F   26068.37011642  .00011856  00000+0  41178-3 0  9997
2 66010  53.1589 105.6027 0001244  98.7636 261.3506 15.30198550 23372
2025-313BE              
1 67482U 25313BE  26068.69721505  .00077178  00000+0  26504-2 0  9996
2 67482  97.3989 145.3568 0007208 335.3714  24.7181 15.29801687  7972
